[{"OBJECT_NAME":"STARLINK-4553","OBJECT_ID":"2022-101BC","EPOCH":"2026-03-09T22:06:32.162976","MEAN_MOTION":15.08844733,"ECCENTRICITY":0.00017236,"INCLINATION":53.2165,"RA_OF_ASC_NODE":52.8317,"ARG_OF_PERICENTER":92.2851,"MEAN_ANOMALY":267.8339,"EPHEMERIS_TYPE":0,"CLASSIFICATION_TYPE":"U","NORAD_CAT_ID":53577,"ELEMENT_SET_NO":999,"REV_AT_EPOCH":19730,"BSTAR":2.7329927e-5,"MEAN_MOTION_DOT":1.47e-6,"MEAN_MOTION_DDOT":0},{"OBJECT_NAME":"OBJECT K","OBJECT_ID":"2017-042K","EPOCH":"2026-03-09T21:28:20.621568","MEAN_MOTION":15.07994228,"ECCENTRICITY":0.00097557,"INCLINATION":97.4104,"RA_OF_ASC_NODE":233.8721,"ARG_OF_PERICENTER":49.2775,"MEAN_ANOMALY":310.9299,"EPHEMERIS_TYPE":0,"CLASSIFICATION_TYPE":"U","NORAD_CAT_ID":42834,"ELEMENT_SET_NO":999,"REV_AT_EPOCH":47201,"BSTAR":0.00042776846,"MEAN_MOTION_DOT":6.528e-5,"MEAN_MOTION_DDOT":0}]
